{
    "links": {
        "self": "http://www.neowsapp.com/rest/v1/neo/3370493?api_key=iIulBulltgU6a56xZRHN4H3l9WmuAYTsLGpBGhQ2"
    },
    "id": "3370493",
    "neo_reference_id": "3370493",
    "name": "(2007 EY25)",
    "designation": "2007 EY25",
    "nasa_jpl_url": "http://ssd.jpl.nasa.gov/sbdb.cgi?sstr=3370493",
    "absolute_magnitude_h": 25.1,
    "estimated_diameter": {
        "kilometers": {
            "estimated_diameter_min": 0.0253837029,
            "estimated_diameter_max": 0.0567596853
        },
        "meters": {
            "estimated_diameter_min": 25.3837029364,
            "estimated_diameter_max": 56.7596852866
        },
        "miles": {
            "estimated_diameter_min": 0.0157726969,
            "estimated_diameter_max": 0.0352688224
        },
        "feet": {
            "estimated_diameter_min": 83.279867942,
            "estimated_diameter_max": 186.2194458756
        }
    },
    "is_potentially_hazardous_asteroid": false,
    "close_approach_data": [
        {
            "close_approach_date": "1904-08-25",
            "close_approach_date_full": "1904-Aug-25 18:25",
            "epoch_date_close_approach": -2062301700000,
            "relative_velocity": {
                "kilometers_per_second": "19.4543024476",
                "kilometers_per_hour": "70035.4888112023",
                "miles_per_hour": "43517.3291449385"
            },
            "miss_distance": {
                "astronomical": "0.0800368055",
                "lunar": "31.1343173395",
                "kilometers": "11973335.624404285",
                "miles": "7439885.764917733"
            },
            "orbiting_body": "Earth"
        },
        {
            "close_approach_date": "2007-03-18",
            "close_approach_date_full": "2007-Mar-18 23:52",
            "epoch_date_close_approach": 1174261920000,
            "relative_velocity": {
                "kilometers_per_second": "16.6370204312",
                "kilometers_per_hour": "59893.2735521407",
                "miles_per_hour": "37215.3510024399"
            },
            "miss_distance": {
                "astronomical": "0.0205823852",
                "lunar": "8.0065478428",
                "kilometers": "3079080.985439524",
                "miles": "1913252.2056684712"
            },
            "orbiting_body": "Earth"
        }
    ],
    "orbital_data": {
        "orbit_id": "11",
        "orbit_determination_date": "2017-04-06 09:06:48",
        "first_observation_date": "2007-03-09",
        "last_observation_date": "2007-03-16",
        "data_arc_in_days": 7,
        "observations_used": 50,
        "orbit_uncertainty": "8",
        "minimum_orbit_intersection": ".00677323",
        "jupiter_tisserand_invariant": "3.759",
        "epoch_osculation": "2454171.5",
        "eccentricity": ".6148581446992478",
        "semi_major_axis": "1.844931066135314",
        "inclination": "2.271808103647568",
        "ascending_node_longitude": "346.6853587254012",
        "orbital_period": "915.3109178085524",
        "perihelion_distance": ".7105601737133496",
        "perihelion_argument": "265.4854346924972",
        "aphelion_distance": "2.979301958557278",
        "perihelion_time": "2454224.435438831425",
        "mean_anomaly": "339.1800167478185",
        "mean_motion": ".3933089762131495",
        "equinox": "J2000",
        "orbit_class": {
            "orbit_class_type": "APO",
            "orbit_class_description": "Near-Earth asteroid orbits which cross the Earth’s orbit similar to that of 1862 Apollo",
            "orbit_class_range": "a (semi-major axis) > 1.0 AU; q (perihelion) < 1.017 AU"
        }
    },
    "is_sentry_object": false
}